{
  "type": "FeatureCollection",
  "features": [
    {
      "type": "Feature",
      "properties": {
        "norad_id": 38867,
        "name": "INTELSAT 23 (IS-23)",
        "group": "intelsat",
        "lat": 0.026791642947793372,
        "lon": 96.21737032189809,
        "alt_km": 35789.185340744945,
        "timestamp": "2025-12-21T03:56:50.522165+00:00",
        "meta_object_name": "INTELSAT 23 (IS-23)",
        "meta_object_id": "2012-057A",
        "meta_epoch": "2025-12-20T18:06:53.957088",
        "meta_mean_motion": 1.00269499,
        "meta_eccentricity": 6.22e-05,
        "meta_inclination": 0.0143,
        "meta_ra_of_asc_node": 58.3081,
        "meta_arg_of_pericenter": 241.304,
        "meta_mean_anomaly": 8.7252,
        "meta_ephemeris_type": 0,
        "meta_classification_type": "U",
        "meta_norad_cat_id": 38867,
        "meta_element_set_no": 999,
        "meta_rev_at_epoch": 4816,
        "meta_bstar": 0,
        "meta_mean_motion_dot": -2.61e-06,
        "meta_mean_motion_ddot": 0,
        "tle_line1": "1 38867U 12057A   25354.75479117 -.00000261  00000+0  00000+0 0  9995",
        "tle_line2": "2 38867   0.0143  58.3081 0000622 241.3040   8.7252  1.00269499 48164"
      },
      "geometry": {
        "type": "Point",
        "coordinates": [
          96.21737032189809,
          0.026791642947793372
        ]
      }
    },
    {
      "type": "Feature",
      "properties": {
        "norad_id": 39360,
        "name": "FM-6",
        "group": "intelsat",
        "lat": 0.0015484258551209577,
        "lon": 33.01606128068601,
        "alt_km": 35794.62052631844,
        "timestamp": "2025-12-21T03:56:50.522175+00:00",
        "meta_object_name": "FM-6",
        "meta_object_id": "2013-058A",
        "meta_epoch": "2025-12-20T17:48:33.214176",
        "meta_mean_motion": 1.00274895,
        "meta_eccentricity": 0.000292,
        "meta_inclination": 0.0118,
        "meta_ra_of_asc_node": 63.0611,
        "meta_arg_of_pericenter": 110.3228,
        "meta_mean_anomaly": 67.1689,
        "meta_ephemeris_type": 0,
        "meta_classification_type": "U",
        "meta_norad_cat_id": 39360,
        "meta_element_set_no": 999,
        "meta_rev_at_epoch": 4428,
        "meta_bstar": 0,
        "meta_mean_motion_dot": 6e-08,
        "meta_mean_motion_ddot": 0,
        "tle_line1": "1 39360U 13058A   25354.74205109  .00000006  00000+0  00000+0 0  9999",
        "tle_line2": "2 39360   0.0118  63.0611 0002920 110.3228  67.1689  1.00274895 44281"
      },
      "geometry": {
        "type": "Point",
        "coordinates": [
          33.01606128068601,
          0.0015484258551209577
        ]
      }
    },
    {
      "type": "Feature",
      "properties": {
        "norad_id": 40271,
        "name": "INTELSAT 30 (IS-30)",
        "group": "intelsat",
        "lat": 0.026549995196612892,
        "lon": 54.13504198899769,
        "alt_km": 35780.06966116936,
        "timestamp": "2025-12-21T03:56:50.522186+00:00",
        "meta_object_name": "INTELSAT 30 (IS-30)",
        "meta_object_id": "2014-062A",
        "meta_epoch": "2025-12-20T14:29:23.871264",
        "meta_mean_motion": 1.00273635,
        "meta_eccentricity": 0.000158,
        "meta_inclination": 0.0137,
        "meta_ra_of_asc_node": 20.9198,
        "meta_arg_of_pericenter": 67.8039,
        "meta_mean_anomaly": 123.013,
        "meta_ephemeris_type": 0,
        "meta_classification_type": "U",
        "meta_norad_cat_id": 40271,
        "meta_element_set_no": 999,
        "meta_rev_at_epoch": 500,
        "meta_bstar": 0,
        "meta_mean_motion_dot": -1.28e-06,
        "meta_mean_motion_ddot": 0,
        "tle_line1": "1 40271U 14062A   25354.60374851 -.00000128  00000+0  00000+0 0  9990",
        "tle_line2": "2 40271   0.0137  20.9198 0001580  67.8039 123.0130  1.00273635  5005"
      },
      "geometry": {
        "type": "Point",
        "coordinates": [
          54.13504198899769,
          0.026549995196612892
        ]
      }
    },
    {
      "type": "Feature",
      "properties": {
        "norad_id": 40333,
        "name": "DIRECTV 14",
        "group": "intelsat",
        "lat": 0.023913443056425378,
        "lon": 49.96866103986636,
        "alt_km": 35786.06894786722,
        "timestamp": "2025-12-21T03:56:50.522196+00:00",
        "meta_object_name": "DIRECTV 14",
        "meta_object_id": "2014-078B",
        "meta_epoch": "2025-12-20T16:10:59.142432",
        "meta_mean_motion": 1.00270571,
        "meta_eccentricity": 2.68e-05,
        "meta_inclination": 0.0061,
        "meta_ra_of_asc_node": 316.1173,
        "meta_arg_of_pericenter": 165.3968,
        "meta_mean_anomaly": 111.5212,
        "meta_ephemeris_type": 0,
        "meta_classification_type": "U",
        "meta_norad_cat_id": 40333,
        "meta_element_set_no": 999,
        "meta_rev_at_epoch": 4025,
        "meta_bstar": 0,
        "meta_mean_motion_dot": -1.02e-06,
        "meta_mean_motion_ddot": 0,
        "tle_line1": "1 40333U 14078B   25354.67429563 -.00000102  00000+0  00000+0 0  9996",
        "tle_line2": "2 40333   0.0061 316.1173 0000268 165.3968 111.5212  1.00270571 40255"
      },
      "geometry": {
        "type": "Point",
        "coordinates": [
          49.96866103986636,
          0.023913443056425378
        ]
      }
    },
    {
      "type": "Feature",
      "properties": {
        "norad_id": 40663,
        "name": "DIRECTV 15",
        "group": "intelsat",
        "lat": 0.031256246249649795,
        "lon": 46.30402111154766,
        "alt_km": 35786.46447697593,
        "timestamp": "2025-12-21T03:56:50.522207+00:00",
        "meta_object_name": "DIRECTV 15",
        "meta_object_id": "2015-026A",
        "meta_epoch": "2025-12-20T14:27:09.086400",
        "meta_mean_motion": 1.0027054,
        "meta_eccentricity": 3.4e-05,
        "meta_inclination": 0.0254,
        "meta_ra_of_asc_node": 14.8027,
        "meta_arg_of_pericenter": 122.9971,
        "meta_mean_anomaly": 65.5425,
        "meta_ephemeris_type": 0,
        "meta_classification_type": "U",
        "meta_norad_cat_id": 40663,
        "meta_element_set_no": 999,
        "meta_rev_at_epoch": 3867,
        "meta_bstar": 0,
        "meta_mean_motion_dot": 0,
        "meta_mean_motion_ddot": 0,
        "tle_line1": "1 40663U 15026A   25354.60218850  .00000000  00000+0  00000+0 0  9990",
        "tle_line2": "2 40663   0.0254  14.8027 0000340 122.9971  65.5425  1.00270540 38672"
      },
      "geometry": {
        "type": "Point",
        "coordinates": [
          46.30402111154766,
          0.031256246249649795
        ]
      }
    },
    {
      "type": "Feature",
      "properties": {
        "norad_id": 40664,
        "name": "SKY MEXICO-1",
        "group": "intelsat",
        "lat": 0.04117448058272388,
        "lon": 70.44551878219939,
        "alt_km": 35794.12282705257,
        "timestamp": "2025-12-21T03:56:50.522217+00:00",
        "meta_object_name": "SKY MEXICO-1",
        "meta_object_id": "2015-026B",
        "meta_epoch": "2025-12-20T18:03:23.114304",
        "meta_mean_motion": 1.00271803,
        "meta_eccentricity": 0.000233,
        "meta_inclination": 0.0156,
        "meta_ra_of_asc_node": 344.7165,
        "meta_arg_of_pericenter": 301.5706,
        "meta_mean_anomaly": 355.3813,
        "meta_ephemeris_type": 0,
        "meta_classification_type": "U",
        "meta_norad_cat_id": 40664,
        "meta_element_set_no": 999,
        "meta_rev_at_epoch": 3866,
        "meta_bstar": 0,
        "meta_mean_motion_dot": -2.11e-06,
        "meta_mean_motion_ddot": 0,
        "tle_line1": "1 40664U 15026B   25354.75235086 -.00000211  00000+0  00000+0 0  9992",
        "tle_line2": "2 40664   0.0156 344.7165 0002330 301.5706 355.3813  1.00271803 38667"
      },
      "geometry": {
        "type": "Point",
        "coordinates": [
          70.44551878219939,
          0.04117448058272388
        ]
      }
    },
    {
      "type": "Feature",
      "properties": {
        "norad_id": 40874,
        "name": "INTELSAT 34 (IS-34)",
        "group": "intelsat",
        "lat": 0.03764728335149573,
        "lon": 93.68268064791336,
        "alt_km": 35784.609682851515,
        "timestamp": "2025-12-21T03:56:50.522227+00:00",
        "meta_object_name": "INTELSAT 34 (IS-34)",
        "meta_object_id": "2015-039A",
        "meta_epoch": "2025-12-20T18:06:09.029088",
        "meta_mean_motion": 1.00271507,
        "meta_eccentricity": 7.85e-05,
        "meta_inclination": 0.0154,
        "meta_ra_of_asc_node": 334.6531,
        "meta_arg_of_pericenter": 180.3511,
        "meta_mean_anomaly": 150.6185,
        "meta_ephemeris_type": 0,
        "meta_classification_type": "U",
        "meta_norad_cat_id": 40874,
        "meta_element_set_no": 999,
        "meta_rev_at_epoch": 3783,
        "meta_bstar": 0,
        "meta_mean_motion_dot": -2.62e-06,
        "meta_mean_motion_ddot": 0,
        "tle_line1": "1 40874U 15039A   25354.75427117 -.00000262  00000+0  00000+0 0  9993",
        "tle_line2": "2 40874   0.0154 334.6531 0000785 180.3511 150.6185  1.00271507 37839"
      },
      "geometry": {
        "type": "Point",
        "coordinates": [
          93.68268064791336,
          0.03764728335149573
        ]
      }
    }
  ]
}